{
  "links" : {
    "next" : "https://api.nasa.gov/neo/rest/v1/feed?start_date=1996-10-23&end_date=1996-10-23&detailed=true&api_key=t0TVs3DtDT2H8Oy2Zy8m2eVrNsAVKAexjcZXUckd",
    "prev" : "https://api.nasa.gov/neo/rest/v1/feed?start_date=1996-10-21&end_date=1996-10-21&detailed=true&api_key=t0TVs3DtDT2H8Oy2Zy8m2eVrNsAVKAexjcZXUckd",
    "self" : "https://api.nasa.gov/neo/rest/v1/feed?start_date=1996-10-22&end_date=1996-10-22&detailed=true&api_key=t0TVs3DtDT2H8Oy2Zy8m2eVrNsAVKAexjcZXUckd"
  },
  "element_count" : 7,
  "near_earth_objects" : {
    "1996-10-22" : [ {
      "links" : {
        "self" : "https://api.nasa.gov/neo/rest/v1/neo/3774566?api_key=t0TVs3DtDT2H8Oy2Zy8m2eVrNsAVKAexjcZXUckd"
      },
      "neo_reference_id" : "3774566",
      "name" : "(2017 JA2)",
      "nasa_jpl_url" : "http://ssd.jpl.nasa.gov/sbdb.cgi?sstr=3774566",
      "absolute_magnitude_h" : 24.771,
      "estimated_diameter" : {
        "kilometers" : {
          "estimated_diameter_min" : 0.0295362242,
          "estimated_diameter_max" : 0.0660450052
        },
        "meters" : {
          "estimated_diameter_min" : 29.5362242448,
          "estimated_diameter_max" : 66.04500521
        },
        "miles" : {
          "estimated_diameter_min" : 0.0183529532,
          "estimated_diameter_max" : 0.0410384509
        },
        "feet" : {
          "estimated_diameter_min" : 96.9036259512,
          "estimated_diameter_max" : 216.6830948931
        }
      },
      "is_potentially_hazardous_asteroid" : false,
      "close_approach_data" : [ {
        "close_approach_date" : "1996-10-22",
        "epoch_date_close_approach" : 845967600000,
        "relative_velocity" : {
          "kilometers_per_second" : "14.0941119936",
          "kilometers_per_hour" : "50738.8031769125",
          "miles_per_hour" : "31527.1191184543"
        },
        "miss_distance" : {
          "astronomical" : "0.1875383683",
          "lunar" : "72.9524230957",
          "kilometers" : "28055342",
          "miles" : "17432780"
        },
        "orbiting_body" : "Earth"
      } ],
      "orbital_data" : {
        "orbit_id" : "7",
        "orbit_determination_date" : "2017-05-13 06:43:37",
        "orbit_uncertainty" : "6",
        "minimum_orbit_intersection" : ".00110762",
        "jupiter_tisserand_invariant" : "5.238",
        "epoch_osculation" : "2458000.5",
        "eccentricity" : ".2898466862462304",
        "semi_major_axis" : "1.201587166856475",
        "inclination" : "9.531888215277331",
        "ascending_node_longitude" : "51.05078793359044",
        "orbital_period" : "481.0955600553713",
        "perihelion_distance" : ".8533111083071299",
        "perihelion_argument" : "252.2569134231705",
        "aphelion_distance" : "1.549863225405821",
        "perihelion_time" : "2457943.139473665754",
        "mean_anomaly" : "42.92242788096369",
        "mean_motion" : ".748292085586003",
        "equinox" : "J2000"
      }
    } ]
  }
}